{
  "58876": {
    "noradId": "58876",
    "tle": [
      "1 58876C 24020A   26016.84284722 -.00083152  00000+0 -27996-2 0   169",
      "2 58876  53.1570 203.0068 0001461  87.8473  15.3058 15.30308192    10"
    ]
  },
  "58877": {
    "noradId": "58877",
    "tle": [
      "1 58877C 24020B   26016.84770833 -.00011918  00000+0 -40159-3 0   161",
      "2 58877  53.1561 203.5860 0001387  89.5915  92.0877 15.30209450    11"
    ]
  },
  "58878": {
    "noradId": "58878",
    "tle": [
      "1 58878C 24020C   26016.84701389  .00001323  00000+0  44590-4 0   163",
      "2 58878  53.1571 203.0215 0001331  87.6852  21.0241 15.30185919    10"
    ]
  },
  "58879": {
    "noradId": "58879",
    "tle": [
      "1 58879C 24020D   26016.84909722 -.00003448  00000+0 -11622-3 0   166",
      "2 58879  53.1581 177.4467 0001288  86.4863  28.1767 15.30193907    12"
    ]
  },
  "58880": {
    "noradId": "58880",
    "tle": [
      "1 58880C 24020E   26016.84840278  .00000532  00000+0  17924-4 0   169",
      "2 58880  53.1573 188.0070 0001283  88.1636  28.4287 15.30188981    11"
    ]
  },
  "58881": {
    "noradId": "58881",
    "tle": [
      "1 58881C 24020F   26016.84631944 -.00000914  00000+0 -30813-4 0   166",
      "2 58881  53.1578 203.1038 0001241  86.3597 337.7970 15.30191005    16"
    ]
  },
  "58882": {
    "noradId": "58882",
    "tle": [
      "1 58882C 24020G   26016.84840278  .00028176  00000+0  95001-3 0   166",
      "2 58882  53.1578 203.1278 0001349 103.0004 315.1184 15.30150169    15"
    ]
  },
  "58883": {
    "noradId": "58883",
    "tle": [
      "1 58883C 24020H   26016.82201389 -.00001783  00000+0 -60101-4 0   160",
      "2 58883  53.1578 203.2878 0001287  89.1159 166.1729 15.30192915    13"
    ]
  },
  "58884": {
    "noradId": "58884",
    "tle": [
      "1 58884C 24020J   26016.84631944  .00017448  00000+0  58788-3 0   167",
      "2 58884  53.1574 177.2788 0001208  89.1250  39.3005 15.30183677    18"
    ]
  },
  "58885": {
    "noradId": "58885",
    "tle": [
      "1 58885C 24020K   26016.84215278 -.00005758  00000+0 -19408-3 0   165",
      "2 58885  53.1566 203.5680 0001170  89.0230  79.5225 15.30195640    12"
    ]
  },
  "58886": {
    "noradId": "58886",
    "tle": [
      "1 58886C 24020L   26016.84423611 -.00001352  00000+0 -45582-4 0   167",
      "2 58886  53.1577 203.2145 0001413  78.0308 282.3028 15.30190833    16"
    ]
  },
  "58887": {
    "noradId": "58887",
    "tle": [
      "1 58887C 24020M   26016.84562500  .00014017  00000+0  47224-3 0   163",
      "2 58887  53.1577 203.2421 0001298  85.9527 264.4605 15.30189257    15"
    ]
  },
  "58889": {
    "noradId": "58889",
    "tle": [
      "1 58889C 24020P   26016.84354167 -.00010665  00000+0 -35944-3 0   166",
      "2 58889  53.1575 203.2857 0001179  69.8888 251.7076 15.30202482    14"
    ]
  },
  "58890": {
    "noradId": "58890",
    "tle": [
      "1 58890C 24020Q   26016.84909722 -.00001006  00000+0 -33892-4 0   161",
      "2 58890  53.1577 201.0606 0001304  85.5462 316.1055 15.30190317    15"
    ]
  },
  "58891": {
    "noradId": "58891",
    "tle": [
      "1 58891C 24020R   26016.84215278  .00000613  00000+0  20645-4 0   161",
      "2 58891  53.1561 162.0993 0001143  87.9564 343.1852 15.30189177    11"
    ]
  },
  "58892": {
    "noradId": "58892",
    "tle": [
      "1 58892C 24020S   26016.84770833  .01002000  00000+0  11325-2 0   161",
      "2 58892  53.1265 178.5653 0006570 247.2657 111.4396 16.07476333    18"
    ]
  },
  "58893": {
    "noradId": "58893",
    "tle": [
      "1 58893C 24020T   26016.84215278 -.00001793  00000+0 -60442-4 0   164",
      "2 58893  53.1573 203.3258 0001281  86.9561 209.5463 15.30191528    14"
    ]
  },
  "58894": {
    "noradId": "58894",
    "tle": [
      "1 58894C 24020U   26016.84701389 -.00005562  00000+0 -18745-3 0   164",
      "2 58894  53.1572 203.3378 0001298  87.5750 218.2694 15.30196552    17"
    ]
  },
  "58895": {
    "noradId": "58895",
    "tle": [
      "1 58895C 24020V   26016.84701389 -.00000699  00000+0 -23564-4 0   167",
      "2 58895  53.1573 203.3715 0001296  81.9836 206.4455 15.30183861    18"
    ]
  },
  "58897": {
    "noradId": "58897",
    "tle": [
      "1 58897C 24020X   26016.84770833 -.00002070  00000+0 -69771-4 0   164",
      "2 58897  53.1572 203.4469 0001230  87.6945 163.8150 15.30190834    14"
    ]
  },
  "58931": {
    "noradId": "58931",
    "tle": [
      "1 58931C 24027A   26016.84423611 -.00001280  00000+0 -43146-4 0   169",
      "2 58931  53.1570 190.3307 0001337  88.2597 217.1474 15.30189568    18"
    ]
  },
  "58932": {
    "noradId": "58932",
    "tle": [
      "1 58932C 24027B   26016.84284722  .00008330  00000+0  28078-3 0   165",
      "2 58932  53.1573 190.3708 0001292  87.8116 192.4916 15.30177964    12"
    ]
  },
  "58933": {
    "noradId": "58933",
    "tle": [
      "1 58933C 24027C   26016.84215278 -.00010994  00000+0 -37050-3 0   167",
      "2 58933  53.1563 190.2713 0001283  87.1137 241.6897 15.30205371    12"
    ]
  },
  "58934": {
    "noradId": "58934",
    "tle": [
      "1 58934C 24027D   26016.84701389  .00002856  00000+0  96266-4 0   162",
      "2 58934  53.1561 190.2145 0001269  90.2769 282.7873 15.30185843    11"
    ]
  },
  "58935": {
    "noradId": "58935",
    "tle": [
      "1 58935C 24027E   26016.84284722  .00005208  00000+0  17556-3 0   168",
      "2 58935  53.1574 190.7477 0001216  85.8978   2.4625 15.30182368    14"
    ]
  },
  "58936": {
    "noradId": "58936",
    "tle": [
      "1 58936C 24027F   26016.84493056  .00006119  00000+0  20626-3 0   165",
      "2 58936  53.1572 190.7262 0001214  86.6171  19.0404 15.30181528    13"
    ]
  },
  "58937": {
    "noradId": "58937",
    "tle": [
      "1 58937C 24027G   26016.84631944 -.00002469  00000+0 -83226-4 0   168",
      "2 58937  53.1574 190.6735 0001221  85.7119  50.8614 15.30192748    12"
    ]
  },
  "58938": {
    "noradId": "58938",
    "tle": [
      "1 58938C 24027H   26016.84701389 -.00040923  00000+0 -13784-2 0   167",
      "2 58938  53.1575 190.7042 0001229  91.0382  31.9165 15.30252743    19"
    ]
  },
  "58939": {
    "noradId": "58939",
    "tle": [
      "1 58939C 24027J   26016.84909722  .00004736  00000+0  15964-3 0   162",
      "2 58939  53.1576 190.6256 0001286  86.7252  82.6134 15.30182971    11"
    ]
  },
  "58940": {
    "noradId": "58940",
    "tle": [
      "1 58940C 24027K   26016.84493056 -.00001024  00000+0 -34497-4 0   164",
      "2 58940  53.1577 190.6333 0001265  82.7891  69.3866 15.30193582    16"
    ]
  },
  "58941": {
    "noradId": "58941",
    "tle": [
      "1 58941C 24027L   26016.84631944 -.00005358  00000+0 -18065-3 0   161",
      "2 58941  53.1561 190.2404 0001290  88.3071 269.3156 15.30188189    16"
    ]
  },
  "58942": {
    "noradId": "58942",
    "tle": [
      "1 58942C 24027M   26016.84562500 -.00001722  00000+0 -58037-4 0   168",
      "2 58942  53.1577 190.6067 0001306  87.3032  80.3400 15.30192281    18"
    ]
  },
  "58943": {
    "noradId": "58943",
    "tle": [
      "1 58943C 24027N   26016.84909722  .00007328  00000+0  24700-3 0   165",
      "2 58943  53.1577 188.1922 0001245  87.8322 241.4617 15.30180182    17"
    ]
  },
  "58944": {
    "noradId": "58944",
    "tle": [
      "1 58944C 24027P   26016.84493056 -.00017407  00000+0 -58681-3 0   160",
      "2 58944  53.1573 190.7004 0001353  86.5036  30.8220 15.30201849    16"
    ]
  },
  "58945": {
    "noradId": "58945",
    "tle": [
      "1 58945C 24027Q   26016.84631944  .00002357  00000+0  79441-4 0   165",
      "2 58945  53.1569 151.9971 0001208  84.3692 148.7249 15.30188337    13"
    ]
  },
  "58946": {
    "noradId": "58946",
    "tle": [
      "1 58946C 24027R   26016.84284722 -.00008483  00000+0 -28591-3 0   161",
      "2 58946  53.1578 190.4816 0001451  63.2078 158.9187 15.30199895    19"
    ]
  },
  "58947": {
    "noradId": "58947",
    "tle": [
      "1 58947C 24027S   26016.84701389 -.00000318  00000+0 -10709-4 0   167",
      "2 58947  53.1580 190.4960 0001218  84.1416 143.5177 15.30188501    13"
    ]
  },
  "58948": {
    "noradId": "58948",
    "tle": [
      "1 58948C 24027T   26016.84354167  .00000468  00000+0  15779-4 0   162",
      "2 58948  53.1577 188.2248 0001325  87.2165 205.6395 15.30189872    12"
    ]
  },
  "58949": {
    "noradId": "58949",
    "tle": [
      "1 58949C 24027U   26016.84631944  .00004701  00000+0  15846-3 0   162",
      "2 58949  53.1571 190.7502 0001583  90.0751   5.7945 15.30183348    19"
    ]
  },
  "58951": {
    "noradId": "58951",
    "tle": [
      "1 58951C 24027W   26016.84909722  .00001272  00000+0  42884-4 0   160",
      "2 58951  53.1581 187.6359 0001467  76.0089 178.3067 15.30182100    14"
    ]
  },
  "58952": {
    "noradId": "58952",
    "tle": [
      "1 58952C 24027X   26016.84493056  .00003508  00000+0  11825-3 0   163",
      "2 58952  53.1577 190.4030 0001534  79.7508 188.7792 15.30184240    16"
    ]
  },
  "58965": {
    "noradId": "58965",
    "tle": [
      "1 58965C 24031A   26016.83104167  .00008793  00000+0  29642-3 0   160",
      "2 58965  53.1562 177.2766 0001101  90.6137  52.5049 15.30177236    13"
    ]
  },
  "58966": {
    "noradId": "58966",
    "tle": [
      "1 58966C 24031B   26016.84493056  .00000078  00000+0  26186-5 0   160",
      "2 58966  53.1563 177.1887 0001176  87.0058 144.2967 15.30187606    12"
    ]
  },
  "58967": {
    "noradId": "58967",
    "tle": [
      "1 58967C 24031C   26016.83798611  .00001016  00000+0  34230-4 0   166",
      "2 58967  53.1561 177.2894 0001153  84.8116  73.3123 15.30188189    18"
    ]
  },
  "58968": {
    "noradId": "58968",
    "tle": [
      "1 58968C 24031D   26016.84493056  .00007674  00000+0  25869-3 0   166",
      "2 58968  53.1584 149.6563 0001179  85.5523 328.8103 15.30178949    17"
    ]
  }
}